API_UWI,Unformatted_API_UWI_12,Latitude,Longitude,Latitude_BH,Longitude_BH,WellName,County,ENVOperator,UpperPerf_FT,LowerPerf_FT,PerfInterval_FT,LateralLength_FT,CompletionDate,SpudDate,FirstProdDate,TVD_FT,ENVInterval,OilGravity_API,TotalWaterPumped_GAL,Proppant_LBS,Township,Range,ENVWellboreStatus
30-015-22210,300152221000,32.1899,-104.223693,32.1899,-104.223693,PRE-ONGARD WELL 001,EDDY,PRE-ONGARD WELL OPERATOR,,,,,,1993-01-18,,,DELAWARE VERTICAL,,,,24S,27E,Drilled
30-015-33122,300153312200,32.237877,-104.137688,32.238216,-104.137388,WEST MALAGA 12 STATE COM 001,EDDY,MEWBOURNE OIL,12512,12524,12,,2004-01-24,2003-12-07,2004-01-01,12860,DELAWARE VERTICAL,,,,24S,27E,Producing
30-015-43163,300154316300,32.203358,-104.162724,32.224142,-104.16273,HUMIDOR BMO STATE COM 001H,EDDY,EOG,,,7026,7026,,,,9041,3RD BONE SPRING SAND,,,,24S,27E,Permit Cancelled
30-015-01128,300150112800,32.197151,-104.219048,32.197151,-104.219048,MOCK 001,EDDY,PRE-ONGARD WELL OPERATOR,,,,,,,,,DELAWARE VERTICAL,,,,24S,27E,P & A
30-015-23221,300152322100,32.186234,-104.159081,32.186681,-104.158663,HUMIDOR BML STATE COM 002,EDDY,EOG,10374,11020,646,,2006-01-10,2005-10-05,2006-01-01,13090,DELAWARE VERTICAL,,,,24S,27E,Producing
30-015-23221,300152322100,32.186234,-104.159081,32.186681,-104.158663,HUMIDOR BML STATE COM 002,EDDY,EOG,8230,8352,122,,2007-12-27,2005-10-05,2006-01-01,13090,DELAWARE VERTICAL,,,159500,24S,27E,Producing
30-015-21415,300152141500,32.200966,-104.167809,32.200966,-104.167809,SULPHATE UNCLE 001,EDDY,PRE-ONGARD WELL OPERATOR,,,,,,,,,DELAWARE VERTICAL,,,,24S,27E,P & A
30-015-44932,300154493200,32.216661,-104.13602,32.217383,-104.151227,MAD RIVER 13 STATE COM 007H,EDDY,CAZA PETROLEUM,,,4413,4413,,,,10328,WOLFCAMP D,,,,24S,27E,Permit Cancelled
30-015-36499,300153649900,32.200602,-104.150183,32.200576,-104.150176,PERDOMO BMP STATE COM 001H,EDDY,EOG,,,,,,2008-08-01,2010-08-01,8601,MIDDLE AVALON,,,,24S,27E,Drilled
30-015-36499,300153649901,32.200602,-104.150183,32.182019,-104.150069,PERDOMO BMP STATE COM 001H,EDDY,EOG,6437,12747,6310,6310,2010-08-21,2008-08-01,2010-08-01,6227,MIDDLE AVALON,,2316256,2443275,24S,27E,Producing
30-015-40950,300154095000,32.211791,-104.141501,32.224805,-104.141375,BONGO FEE 001H,EDDY,CONOCOPHILLIPS,7866,12031,4165,4165,2013-06-21,2013-04-24,2013-06-01,7738,2ND BONE SPRING SAND,,2324898,3006614,24S,27E,Producing
30-015-42817,300154281700,32.219213,-104.154852,32.219889,-104.168074,HUMIDOR BMO STATE COM 004C,EDDY,EOG,,,,,,,,7623,3RD BONE SPRING,,,,24S,27E,Permit Cancelled
30-015-46021,300154602100,32.212105,-104.136068,32.213604,-104.151429,MAD RIVER 13 STATE COM 008H,EDDY,CAZA PETROLEUM,,,4700,4700,,,,10302,WOLFCAMP D,,,,24S,27E,Permit Expired
30-015-01120,300150112000,32.230022,-104.201973,32.230022,-104.201973,CRAWFORD 001,EDDY,PRE-ONGARD WELL OPERATOR,,,,,,,,2300,DELAWARE VERTICAL,,,,24S,27E,P & A
30-015-21101,300152110100,32.233718,-104.21797,32.233718,-104.21797,PRE-ONGARD WELL 001,EDDY,PRE-ONGARD WELL OPERATOR,,,,,,1981-03-11,,,DELAWARE VERTICAL,,,,24S,27E,Drilled
30-015-01126,300150112600,32.210922,-104.186203,32.210922,-104.186203,ST HAMILTON 001,EDDY,PRE-ONGARD WELL OPERATOR,,,,,,,,,DELAWARE VERTICAL,,,,24S,27E,P & A
30-015-43096,300154309600,32.216384,-104.180982,32.216345,-104.180995,BLACK RIVER 15 STATE SWD 001,EDDY,MARATHON,3115,4024,909,,,2017-03-02,,4234,DELAWARE VERTICAL,,,,24S,27E,P & A
30-015-47538,300154753800,32.193611,-104.210399,32.224919,-104.205376,WYATT EARP 20 17 FEDERAL COM 734H,EDDY,DEVON,,,10244,10244,,,,9750,WOLFCAMP B LOWER,,,,24S,27E,Permitted
30-015-43581,300154358100,32.210989,-104.151037,32.222779,-104.151014,MAD RIVER 13 STATE COM 002H,EDDY,CAZA PETROLEUM,,,3717,3717,,,,573,,,,,24S,27E,Permit Expired
30-015-21414,300152141400,32.252232,-104.180351,32.252232,-104.180351,SULPHATE AUNT 001,EDDY,PRE-ONGARD WELL OPERATOR,,,,,,,,,DELAWARE VERTICAL,,,,24S,27E,P & A
30-015-24513,300152451300,32.175377,-104.210495,32.175795,-104.210113,NEW MEXICO DM STATE 001,EDDY,J & G ENTERPRISE LTD CO,,,,,1983-11-01,,1983-11-01,,DELAWARE VERTICAL,,,,24S,27E,P & A
30-015-42755,300154275500,32.201939,-104.154732,32.181673,-104.154129,HUMIDOR BML STATE COM 005H,EDDY,EOG,9452,16115,6663,6663,2015-07-01,2014-10-28,2015-07-01,9131,3RD BONE SPRING SAND,,9075757,10227021,24S,27E,Producing
30-015-54112,300155411200,32.181439,-104.233697,32.209212,-104.232005,ARCHDUKE 30 19 W0NC FEDERAL COM 001H,EDDY,MEWBOURNE OIL,,,9687,9687,,,,8978,WOLFCAMP A UPPER,,,,24S,27E,Permitted
30-015-38260,300153826000,32.179024,-104.153702,32.179432,-104.168587,HARKEY 35 STATE 002H,EDDY,EOG,,,4144,4144,,,,8280,3RD BONE SPRING,,,,24S,27E,Permit Cancelled
30-015-01134,300150113400,32.186245,-104.197685,32.186245,-104.197685,ROSE 002,EDDY,PRE-ONGARD WELL OPERATOR,,,,,,,,,DELAWARE VERTICAL,,,,24S,27E,P & A
30-015-24184,300152418400,32.244541,-104.23156,32.244541,-104.23156,AMOCO 'MU' STATE 001,EDDY,PRE-ONGARD WELL OPERATOR,,,,,,,,,DELAWARE VERTICAL,,,,24S,27E,P & A
30-015-01121,300150112100,32.229473,-104.197708,32.229473,-104.197708,CRAWFORD 001,EDDY,PRE-ONGARD WELL OPERATOR,,,,,,,,2198,DELAWARE VERTICAL,,,,24S,27E,P & A
30-015-01127,300150112700,32.211792,-104.197723,32.211792,-104.197723,UNION PURE ST 001,EDDY,PRE-ONGARD WELL OPERATOR,,,,,,,,2480,DELAWARE VERTICAL,,,,24S,27E,P & A
30-015-43194,300154319400,32.226038,-104.136474,32.226567,-104.136108,RUSTLER BREAKS 12 24 27 204H,EDDY,MATADOR RESOURCES,,,,,,2017-02-05,2017-03-01,9295,WOLFCAMP A UPPER,46,,,24S,27E,Drilled
30-015-43194,300154319401,32.226038,-104.136474,32.225974,-104.152107,RUSTLER BREAKS 12 24 27 204H,EDDY,MATADOR RESOURCES,9540,13895,4355,4355,2017-03-18,2017-02-05,2017-03-01,9295,WOLFCAMP A UPPER,,7289061,13770922,24S,27E,Producing
30-015-43959,300154395901,32.210336,-104.171116,32.236015,-104.17139,BLACK RIVER 15 10 STATE COM X 004H,EDDY,MARATHON,,,8526,8526,,2017-01-27,2017-04-01,9199,WOLFCAMP XY,,,,24S,27E,Drilled
30-015-43959,300154395900,32.210336,-104.171116,32.238777,-104.171088,BLACK RIVER 15 10 STATE COM X 004H,EDDY,MARATHON,9592,18118,8526,8526,2017-04-01,2017-01-27,2017-04-01,9199,WOLFCAMP XY,47.6,19935552,22664516,24S,27E,Producing
30-015-35706,300153570600,32.248381,-104.223269,32.248701,-104.222742,HASBEEN STATE 001H,EDDY,CONOCOPHILLIPS,,,,,,,,12500,DELAWARE VERTICAL,,,,24S,27E,Permit Cancelled
30-015-44456,300154445600,32.210688,-104.176522,32.238241,-104.175846,BLACK RIVER 15 10 STATE COM X 007H,EDDY,MARATHON,9899,19605,9706,9706,2018-07-10,2018-01-13,2018-07-01,9852,WOLFCAMP C,,7321809,,24S,27E,Producing
30-015-46268,300154626800,32.235873,-104.160765,32.238819,-104.136319,WESTLOVING 11 12 W0BA FEDERAL COM 001H,EDDY,MEWBOURNE OIL,,,7211,7211,2021-08-30,2021-05-27,2021-09-01,9361,WOLFCAMP A LOWER,,17774694,21561907,24S,27E,Producing
30-015-42029,300154202900,32.211428,-104.142699,32.224706,-104.142251,KUDU FEE 001H,EDDY,CONOCOPHILLIPS,5962,10540,4578,4578,2014-06-14,2014-04-04,2014-06-01,5848,ABOVE UPPER AVALON,,2953961,3351294,24S,27E,P & A
30-015-45019,300154501900,32.253091,-104.165461,32.233094,-104.168444,SOUTH LOVING 2 11 W0DE STATE COM 001H,EDDY,MEWBOURNE OIL,9448,16525,7077,7077,2018-10-24,2018-07-10,2018-10-01,9138,WOLFCAMP XY,47.8,17808506,17438150,24S,27E,Producing
30-015-24168,300152416800,32.242006,-104.193375,32.242006,-104.193375,PRE-ONGARD WELL 001,EDDY,PRE-ONGARD WELL OPERATOR,,,,,,,,,DELAWARE VERTICAL,,,,24S,27E,Permit Cancelled
30-015-44042,300154404200,32.215846,-104.136029,32.216493,-104.136095,MAD RIVER 13 STATE COM 004H,EDDY,CAZA PETROLEUM,9288,14032,4744,,,2017-02-14,2017-04-01,9334,WOLFCAMP A UPPER,,,,24S,27E,Drilled
30-015-44042,300154404201,32.215846,-104.136029,32.215717,-104.151735,MAD RIVER 13 STATE COM 004H,EDDY,CAZA PETROLEUM,,,,,2017-04-11,2017-02-14,2017-04-01,9334,WOLFCAMP A UPPER,,,,24S,27E,Producing
30-015-53671,300155367100,32.226596,-104.169673,32.227083,-104.152227,TANGO STATE COM 501H,EDDY,CONOCOPHILLIPS,,,4705,4705,,,,7567,3RD BONE SPRING,,,,24S,27E,Permitted
30-015-01139,300150113900,32.175075,-104.184815,32.175075,-104.184815,"ST JOHN MKE 10,917 001",EDDY,PRE-ONGARD WELL OPERATOR,,,,,1958-04-01,,1958-04-01,,DELAWARE VERTICAL,,,,24S,27E,P & A
30-015-41146,300154114600,32.180412,-104.215897,32.167525,-104.214696,DOC HOLLIDAY 32 STATE COM 002,EDDY,DEVON,,,,,,,,7593,DELAWARE VERTICAL,,,,24S,27E,Permit Cancelled
30-015-01117,300150111700,32.245068,-104.146294,32.245068,-104.146294,STATE 001,EDDY,PRE-ONGARD WELL OPERATOR,,,,,1958-03-01,,1958-03-01,,DELAWARE VERTICAL,,,,24S,27E,P & A
30-015-10441,300151044100,32.23307,-104.171059,32.23307,-104.171059,AJ CRAWFORD 001,EDDY,PRE-ONGARD WELL OPERATOR,,,,,,,,2416,DELAWARE VERTICAL,,,,24S,27E,P & A
30-015-01131,300150113100,32.208283,-104.176422,32.208283,-104.176422,STATE 001,EDDY,PRE-ONGARD WELL OPERATOR,,,,,,,,,DELAWARE VERTICAL,,,,24S,27E,P & A
30-015-40866,300154086600,32.22517,-104.202293,32.238477,-104.202796,LONG NOSE 002H,EDDY,CONOCOPHILLIPS,,,,,,,,,DELAWARE VERTICAL,,,,24S,27E,Permit Cancelled
30-015-33084,300153308400,32.245102,-104.141968,32.245479,-104.141642,LOVING 1 STATE 004,EDDY,CONOCOPHILLIPS,12236,12664,428,,2004-09-16,2004-06-25,2004-09-01,12056,DELAWARE VERTICAL,,,171700,24S,27E,P & A
30-015-36108,300153610800,32.221769,-104.206209,32.222175,-104.206388,HABANERO 17 FEDERAL COM 001H,EDDY,EOG,,,,,,2011-08-14,2012-04-01,9897,WOLFCAMP C,,,,24S,27E,Drilled
30-015-36108,300153610802,32.221769,-104.206209,32.222049,-104.211767,HABANERO 17 FEDERAL COM 001H,EDDY,EOG,,,,,,2011-08-14,2012-04-01,9893,,,,,24S,27E,Drilled
30-015-36108,300153610801,32.221769,-104.206209,32.221798,-104.218908,HABANERO 17 FEDERAL COM 001H,EDDY,EOG,9650,13377,3727,3727,2011-12-03,2011-08-14,2012-04-01,9897,WOLFCAMP C,,2697492,2142748,24S,27E,Producing
30-015-44484,300154448400,32.240218,-104.155567,32.253211,-104.15573,EL PRESIDENTE STATE 24 27 2 TB 006H,EDDY,MARATHON,9200,13595,4395,4395,2018-07-01,2018-01-12,2018-07-01,9104,3RD BONE SPRING SAND,,6634192,,24S,27E,Producing
30-015-24176,300152417600,32.237808,-104.146446,32.237926,-104.145995,STATE MS GAS COM 001,EDDY,MEWBOURNE OIL,,,,,1984-03-01,1982-07-31,1984-03-01,12780,DELAWARE VERTICAL,,,,24S,27E,P & A
30-015-24176,300152417600,32.237808,-104.146446,32.237926,-104.145995,STATE MS GAS COM 001,EDDY,MEWBOURNE OIL,10350,10568,218,,1989-09-27,1982-07-31,1984-03-01,12780,DELAWARE VERTICAL,,,,24S,27E,P & A
30-015-24176,300152417600,32.237808,-104.146446,32.237926,-104.145995,STATE MS GAS COM 001,EDDY,MEWBOURNE OIL,10250,10568,318,,2002-10-01,1982-07-31,1984-03-01,12780,DELAWARE VERTICAL,,,,24S,27E,P & A
30-015-48646,300154864601,32.182315,-104.151006,32.210222,-104.151232,PERDOMO 25 STATE COM 701H,EDDY,EOG,,,,,,2021-12-20,2023-06-01,9313,WOLFCAMP A UPPER,,,,24S,27E,Drilled
30-015-48646,300154864600,32.182315,-104.151006,32.20944,-104.151767,PERDOMO 25 STATE COM 701H,EDDY,EOG,,,9836,9836,2023-04-13,2021-12-20,2023-06-01,9313,WOLFCAMP A UPPER,,15660498,24736241,24S,27E,Producing
30-015-01138,300150113800,32.18026,-104.217705,32.18026,-104.217705,SPARROW STATE 001,EDDY,PRE-ONGARD WELL OPERATOR,,,,,,,,,DELAWARE VERTICAL,,,,24S,27E,P & A
30-015-43960,300154396000,32.21069,-104.176622,32.238277,-104.177374,BLACK RIVER 15 10 STATE COM 003H,EDDY,MARATHON,9699,18957,9258,9258,2018-05-28,2018-01-11,2018-05-01,9196,WOLFCAMP A UPPER,,13863927,,24S,27E,Producing
30-015-43170,300154317000,32.202903,-104.159243,32.18242,-104.158671,HUMIDOR BML STATE COM 004H,EDDY,EOG,,,,7224,,,,8154,3RD BONE SPRING,,,,24S,27E,Permit Cancelled
30-015-21970,300152197000,32.232914,-104.198753,32.232914,-104.198753,FEE 76 001,EDDY,PRE-ONGARD WELL OPERATOR,,,,,,,,,DELAWARE VERTICAL,,,,24S,27E,P & A
30-015-25087,300152508700,32.203834,-104.166771,32.204429,-104.166367,TARGET 23 STATE 001,EDDY,HEC PETROLEUM,11354,11502,148,,1985-10-01,,1985-10-01,12700,DELAWARE VERTICAL,,,,24S,27E,P & A
30-015-25087,300152508700,32.203834,-104.166771,32.204429,-104.166367,TARGET 23 STATE 001,EDDY,HEC PETROLEUM,10796,10804,8,,1994-04-05,,1985-10-01,12700,DELAWARE VERTICAL,,,,24S,27E,P & A
30-015-23162,300152316200,32.209869,-104.187439,32.209869,-104.187439,EL PASO STATE 002,EDDY,PRE-ONGARD WELL OPERATOR,,,,,,,,,DELAWARE VERTICAL,,,,24S,27E,P & A
30-015-23751,300152375100,32.190216,-104.150574,32.190539,-104.150208,CORDOVA SWD 001,EDDY,EOG,3294,5074,1780,,2007-04-03,2006-08-18,,5500,DELAWARE VERTICAL,,,76000,24S,27E,P & A
30-015-46169,300154616900,32.235708,-104.160765,32.233981,-104.13633,WESTLOVING 11 12 W0GH FEDERAL COM 003H,EDDY,MEWBOURNE OIL,,,7211,7211,,,,9356,WOLFCAMP XY,,,,24S,27E,Permit Expired
30-015-41171,300154117100,32.224099,-104.197663,32.21153,-104.197381,JOSEY WALES 16 STATE COM 002H,EDDY,DEVON,,,4259,4259,,,,7446,3RD BONE SPRING,,,,24S,27E,Permit Cancelled
30-015-43296,300154329600,32.180389,-104.223106,32.194545,-104.222616,COMMODORE 30 W2PA FEDERAL 001H,EDDY,MEWBOURNE OIL,10413,15043,4630,4630,2017-01-17,2016-06-25,2017-01-01,10132,WOLFCAMP C,55,9884912,8598320,24S,27E,Producing
30-015-35948,300153594800,32.243847,-104.189041,32.243612,-104.188843,BAT BOY STATE COM 001,EDDY,CONOCOPHILLIPS,11731,12388,657,,2008-08-08,2008-05-05,2008-09-01,12550,DELAWARE VERTICAL,,,10000,24S,27E,Producing
30-015-35948,300153594800,32.243847,-104.189041,32.243612,-104.188843,BAT BOY STATE COM 001,EDDY,CONOCOPHILLIPS,11028,11624,596,,2009-02-24,2008-05-05,2008-09-01,12550,DELAWARE VERTICAL,,,15000,24S,27E,Producing
30-015-35349,300153534900,32.169341,-104.137599,32.169727,-104.137074,PUNCH STATE COM 001C,EDDY,CONOCOPHILLIPS,,,,,,,,13000,DELAWARE VERTICAL,,,,24S,27E,Permit Cancelled
30-015-42893,300154289300,32.202517,-104.154281,32.224528,-104.154503,MACANUDO BTE STATE COM 001H,EDDY,EOG,8682,16032,7350,7350,2016-05-03,2015-01-29,2016-05-01,8324,3RD BONE SPRING,,147999,10291220,24S,27E,Producing
30-015-01133,300150113300,32.193401,-104.189087,32.193401,-104.189087,ROSE 001,EDDY,PRE-ONGARD WELL OPERATOR,,,,,,,,,DELAWARE VERTICAL,,,,24S,27E,P & A
30-015-36138,300153613800,32.234962,-104.206226,32.235127,-104.206164,JALAPENO 8 FEDERAL COM 001,EDDY,DEVON,,,,,,,,12500,DELAWARE VERTICAL,,,,24S,27E,Permit Cancelled
30-015-01123,300150112300,32.230022,-104.1977,32.230022,-104.1977,AJ CRAWFORD B-9 001,EDDY,PRE-ONGARD WELL OPERATOR,,,,,,,,,DELAWARE VERTICAL,,,,24S,27E,P & A
30-015-42728,300154272800,32.223757,-104.1754,32.251773,-104.176953,BLACK RIVER 10 STATE COM 002H,EDDY,MARATHON,,,,9982,,2017-10-01,2018-03-01,9302,WOLFCAMP A LOWER,,,,24S,27E,Drilled
30-015-42728,300154272801,32.223757,-104.1754,32.251216,-104.176347,BLACK RIVER 10 STATE COM 002H,EDDY,MARATHON,9342,19056,9714,9714,2018-03-04,2017-10-01,2018-03-01,9302,WOLFCAMP A LOWER,,18233424,23759489,24S,27E,Producing
30-015-47541,300154754100,32.194023,-104.210399,32.224925,-104.211423,WYATT EARP 20 17 FEDERAL COM 622H,EDDY,DEVON,,,10273,10273,,,,8990,WOLFCAMP XY,,,,24S,27E,Permitted
30-015-47506,300154750600,32.194024,-104.210496,32.224792,-104.220121,WYATT EARP 20 17 FEDERAL COM 332H,EDDY,DEVON,,,10255,10255,,,,8960,WOLFCAMP XY,,,,24S,27E,Permitted
30-015-38248,300153824800,32.16703,-104.222824,32.179174,-104.224472,TAOS FEDERAL 003,EDDY,COTERRA ENERGY,10710,14459,3749,3749,2011-08-18,2011-04-24,2011-08-01,10615,LOWER PENNSYLVANIAN AND MISSISSIPPIAN,55,8598805,7037559,24S,27E,Producing
30-015-41090,300154109000,32.211103,-104.19288,32.212348,-104.19202,JOSEY WALES 16 STATE COM 003H,EDDY,EOG,,,,,,2013-06-10,2013-08-01,7454,2ND BONE SPRING SAND,,,,24S,27E,Drilled
30-015-41090,300154109090,32.211103,-104.19288,32.210718,-104.192587,JOSEY WALES 16 STATE COM 003H,EDDY,EOG,,,,,,2013-06-10,2013-08-01,8895,,,,,24S,27E,Drilled
30-015-41090,300154109001,32.211103,-104.19288,32.224323,-104.192822,JOSEY WALES 16 STATE COM 003H,EDDY,EOG,7466,12021,4555,4555,2013-08-25,2013-06-10,2013-08-01,7454,2ND BONE SPRING SAND,,1781472,2989661,24S,27E,Producing
30-015-47539,300154753900,32.193612,-104.210496,32.224924,-104.210356,WYATT EARP 20 17 FEDERAL COM 733H,EDDY,DEVON,,,10243,10243,,,,9750,WOLFCAMP B LOWER,,,,24S,27E,Permitted
30-015-46170,300154617001,32.235791,-104.160765,32.234585,-104.136329,WESTLOVING 11 12 W0GH FEDERAL COM 002H,EDDY,MEWBOURNE OIL,,,,7304,,2021-05-12,2021-09-01,9374,WOLFCAMP A LOWER,,,,24S,27E,Drilled
30-015-46170,300154617000,32.235791,-104.160765,32.23598,-104.136569,WESTLOVING 11 12 W0GH FEDERAL COM 002H,EDDY,MEWBOURNE OIL,,,7213,7213,2021-08-30,2021-05-12,2021-09-01,9360,WOLFCAMP A LOWER,,18301692,22158516,24S,27E,Producing
30-015-44062,300154406200,32.216249,-104.135992,32.215668,-104.150721,MAD RIVER 13 STATE COM 005H,EDDY,CAZA PETROLEUM,10640,14994,4354,4354,2018-06-30,2018-04-22,2018-07-01,10262,WOLFCAMP D,36,,,24S,27E,Producing
30-015-32399,300153239900,32.237773,-104.150703,32.237773,-104.150703,WEST LOVING 12 STATE COM 001,EDDY,MEWBOURNE OIL,,,,,,,,12800,DELAWARE VERTICAL,,,,24S,27E,Permit Cancelled
30-015-36436,300153643600,32.169044,-104.227684,32.169351,-104.227492,TAOS FEDERAL 002,EDDY,COTERRA ENERGY,,,,,,,,12300,DELAWARE VERTICAL,,,,24S,27E,Permit Expired
30-015-44077,300154407700,32.211695,-104.136059,32.211134,-104.151652,MAD RIVER 13 STATE COM 006H,EDDY,CAZA PETROLEUM,10329,14540,4211,4211,2017-05-05,2017-03-14,2017-05-01,9941,WOLFCAMP C,,11976048,10300000,24S,27E,Producing
30-015-40622,300154062200,32.180674,-104.176963,32.167786,-104.177024,MUNNYNTHABANK STATE 002H,EDDY,EOG,8546,12842,4296,4296,2013-04-24,2013-01-13,2013-04-01,7735,2ND BONE SPRING SAND,,2346759,2998200,24S,27E,Producing
30-015-01136,300150113600,32.210861,-104.205193,32.210861,-104.205193,MATLOCK FED 001,EDDY,PRE-ONGARD WELL OPERATOR,,,,,,,,,DELAWARE VERTICAL,,,,24S,27E,P & A
30-015-01170,300150117000,32.236347,-104.236893,32.236347,-104.236893,CONLON 001,EDDY,PRE-ONGARD WELL OPERATOR,,,,,,,,,DELAWARE VERTICAL,,,,24S,27E,P & A
30-015-47507,300154750700,32.1964,-104.205896,32.224922,-104.208545,WYATT EARP 20 17 FEDERAL COM 333H,EDDY,DEVON,,,9939,9939,,,,8880,3RD BONE SPRING SAND,,,,24S,27E,Permitted
30-015-01169,300150116900,32.223862,-104.171166,32.223862,-104.171166,HARKEY 001,EDDY,PRE-ONGARD WELL OPERATOR,,,,,,,,,DELAWARE VERTICAL,,,,24S,27E,P & A
30-015-41151,300154115100,32.180408,-104.209587,32.16764,-104.210334,DOC HOLLIDAY 32 STATE COM 003,EDDY,DEVON,,,,,,,,7590,DELAWARE VERTICAL,,,,24S,27E,Permit Cancelled
30-015-42001,300154200100,32.209309,-104.221847,32.223931,-104.222533,ROWDY YATES 18 FED COM 001H,EDDY,DEVON,,,10952,10952,,,,,WOLFCAMP B UPPER,,,,24S,27E,Permit Expired
30-015-47505,300154750500,32.196457,-104.220418,32.224792,-104.219765,WYATT EARP 20 17 FEDERAL COM 331H,EDDY,DEVON,,,9901,9901,,,,8810,3RD BONE SPRING SAND,,,,24S,27E,Permitted
30-015-21936,300152193600,32.223671,-104.203072,32.223671,-104.203072,EL PASO STATE 001,EDDY,PRE-ONGARD WELL OPERATOR,,,,,,,,2285,DELAWARE VERTICAL,,,,24S,27E,P & A
30-015-43264,300154326400,32.225958,-104.136474,32.228126,-104.151287,RUSTLER BREAKS 12 24S 27E RB 207C,EDDY,MATADOR RESOURCES,,,,4389,,,,9861,WOLFCAMP B LOWER,,,,24S,27E,Permit Cancelled
30-015-44069,300154406900,32.210639,-104.1733,32.238405,-104.179245,BLACK RIVER 15 10 STATE COM X 006H,EDDY,MARATHON,,,,10044,,2017-10-03,2018-03-01,9101,3RD BONE SPRING SAND,,,,24S,27E,Drilled
30-015-44069,300154406901,32.210639,-104.1733,32.238079,-104.173208,BLACK RIVER 15 10 STATE COM X 006H,EDDY,MARATHON,9359,18963,9604,9604,2018-03-02,2017-10-03,2018-03-01,9101,3RD BONE SPRING SAND,,18118710,24797982,24S,27E,Inactive Producer
30-015-53832,300155383200,32.230482,-104.136573,32.231011,-104.136196,DAVID EDELSTEIN STATE COM 123H,EDDY,MATADOR RESOURCES,,,9980,9980,,,,7790,3RD BONE SPRING,,,,24S,27E,Permitted
30-015-41170,300154117000,32.224167,-104.202004,32.211535,-104.201649,JOSEY WALES 16 STATE COM 001H,EDDY,DEVON,,,4259,4259,,,,7378,2ND BONE SPRING SAND,,,,24S,27E,Permit Cancelled
30-015-01130,300150113000,32.208187,-104.189369,32.208187,-104.189369,HUMBLE ST 001,EDDY,PRE-ONGARD WELL OPERATOR,,,,,1952-08-01,,1952-08-01,,DELAWARE VERTICAL,,,,24S,27E,P & A
30-015-41887,300154188790,32.195943,-104.227587,32.196016,-104.226909,PREACHER 19 FEDERAL 003H,EDDY,DEVON,,,,,,2014-03-10,2014-07-01,8875,,,,,24S,27E,Drilled
30-015-41887,300154188701,32.195943,-104.227587,32.196016,-104.226909,PREACHER 19 FEDERAL 003H,EDDY,DEVON,,,,,,2014-03-10,2014-07-01,8875,,,,,24S,27E,Drilled
30-015-41887,300154188700,32.195943,-104.227587,32.209034,-104.227498,PREACHER 19 FEDERAL 003H,EDDY,DEVON,7387,11888,4501,4501,2014-04-30,2014-03-10,2014-07-01,7346,2ND BONE SPRING SAND,,3321444,2837165,24S,27E,Producing
30-015-36305,300153630501,32.179297,-104.137632,32.179212,-104.137562,STOGEY BLG STATE COM 001H,EDDY,EOG,,,,,,2008-07-19,2008-11-01,7999,,,,,24S,27E,Drilled
30-015-36305,300153630500,32.179297,-104.137632,32.178949,-104.150125,STOGEY BLG STATE COM 001H,EDDY,EOG,8681,11948,3267,3267,2008-11-18,2008-07-19,2008-11-01,8331,3RD BONE SPRING,,565283,636000,24S,27E,Producing
30-015-43418,300154341800,32.253969,-104.146675,32.24082,-104.147012,CHOPPER STATE 003H,EDDY,CONOCOPHILLIPS,9722,13840,4118,4118,2016-06-13,2016-02-09,2016-06-01,9453,WOLFCAMP A UPPER,,8046150,8100072,24S,27E,Producing
30-015-42769,300154276901,32.240307,-104.153542,32.253772,-104.153686,EL PRESIDENTE STATE 003H,EDDY,MARATHON,,,,,,2014-11-21,2015-07-01,9851,DELAWARE VERTICAL,,,,24S,27E,Drilled
30-015-42769,300154276900,32.240307,-104.153542,32.240424,-104.15407,EL PRESIDENTE STATE 003H,EDDY,MARATHON,10245,13865,3620,,2015-06-29,2014-11-21,2015-07-01,9851,DELAWARE VERTICAL,,5491458,6669035,24S,27E,Producing
30-015-44597,300154459701,32.219419,-104.136166,32.218559,-104.136479,BRANTLEY STATE COM 13 24 27 RB 206H,EDDY,MATADOR RESOURCES,,,,,,2018-03-31,2018-08-01,9269,,,,,24S,27E,Drilled
30-015-44597,300154459700,32.219419,-104.136166,32.218395,-104.152088,BRANTLEY STATE COM 13 24 27 RB 206H,EDDY,MATADOR RESOURCES,9587,13901,4314,4314,2018-05-04,2018-03-31,2018-08-01,9260,WOLFCAMP A UPPER,46,6981114,14326278,24S,27E,Producing
30-015-41528,300154152890,32.195208,-104.137442,32.194893,-104.137573,QUIEN SABE 25 FEDERAL 001H,EDDY,CONOCOPHILLIPS,,,,,,2013-11-08,2014-01-01,9233,,,,,24S,27E,Drilled
30-015-41528,300154152800,32.195208,-104.137442,32.182035,-104.136713,QUIEN SABE 25 FEDERAL 001H,EDDY,CONOCOPHILLIPS,8128,12172,4044,4044,2014-01-04,2013-11-08,2014-01-01,7922,2ND BONE SPRING SAND,,2700775,2931193,24S,27E,Producing
30-015-49601,300154960100,32.253284,-104.182756,32.225543,-104.18041,TONY LA RUSSA 0310 STATE COM 226H,EDDY,MATADOR RESOURCES,,,10053,10053,2022-11-02,2022-07-13,2022-11-01,9708,WOLFCAMP B LOWER,,22329476,23986042,24S,27E,Producing
30-015-47642,300154764200,32.194495,-104.2093,32.166788,-104.20998,HUCKLEBERRY 29 32 STATE FEDERAL COM 733H,EDDY,EOG,,,,9860,,,,,,,,,24S,27E,Permit Expired
30-015-34520,300153452001,32.166855,-104.236351,32.169703,-104.234907,TAOS FEDERAL 001,EDDY,COTERRA ENERGY,,,,,,2006-02-10,2006-09-01,12216,DELAWARE VERTICAL,,,,24S,27E,Drilled
30-015-34520,300153452000,32.166855,-104.236351,32.167118,-104.236203,TAOS FEDERAL 001,EDDY,COTERRA ENERGY,10354,11980,1626,,2006-09-26,2006-02-10,2006-09-01,12283,DELAWARE VERTICAL,,365498,130220,24S,27E,Producing
30-015-44815,300154481500,32.210879,-104.184621,32.223982,-104.185215,BLACK RIVER 374 STATE 24 27 15 TB 006H,EDDY,MARATHON,,,4358,4358,,,,9210,3RD BONE SPRING SAND,,,,24S,27E,Permit Cancelled
30-015-44532,300154453200,32.209951,-104.222185,32.210916,-104.245377,ANNABELLE 18 13 W2P0 FEDERAL COM 001H,EDDY,MEWBOURNE OIL,9862,16650,6788,6788,2018-03-20,2017-12-19,2018-03-01,9730,WOLFCAMP C,54,15769110,12333138,24S,27E,Producing
30-015-23729,300152372900,32.251553,-104.141983,32.251857,-104.141643,LOVING 1 STATE 001,EDDY,CONOCOPHILLIPS,,,,,1981-11-01,1981-04-17,1981-11-01,12158,DELAWARE VERTICAL,,,,24S,27E,P & A
30-015-23729,300152372900,32.251553,-104.141983,32.251857,-104.141643,LOVING 1 STATE 001,EDDY,CONOCOPHILLIPS,10381,10435,54,,2006-05-19,1981-04-17,1981-11-01,12158,DELAWARE VERTICAL,,,,24S,27E,P & A
30-015-35838,300153583800,32.169338,-104.137589,32.169312,-104.137607,GURKHA BKG STATE COM 001,EDDY,EOG,12322,12768,446,,2008-03-19,2007-11-19,2008-03-01,11439,DELAWARE VERTICAL,,,81500,24S,27E,Producing
30-015-34701,300153470101,32.226372,-104.210045,,,RED BAT FEE 001,EDDY,CONOCOPHILLIPS,,,,,,2006-08-25,2007-03-01,9340,DELAWARE VERTICAL,,,,24S,27E,Drilled
30-015-34701,300153470100,32.226372,-104.210045,32.226275,-104.209893,RED BAT FEE 001,EDDY,CONOCOPHILLIPS,11644,12256,612,,2006-12-02,2006-08-25,2007-03-01,9340,DELAWARE VERTICAL,,,88500,24S,27E,Producing
30-015-46126,300154612600,32.209052,-104.138872,32.182195,-104.136175,QUIEN SABE FEDERAL COM 701H,EDDY,CONOCOPHILLIPS,,,9812,9812,,,,9442,WOLFCAMP A LOWER,,,,24S,27E,Permit Expired
30-015-23275,300152327500,32.179913,-104.207291,32.179913,-104.207291,EL PASO B STATE 001,EDDY,PRE-ONGARD WELL OPERATOR,,,,,,,,2365,DELAWARE VERTICAL,,,,24S,27E,P & A
30-015-24067,300152406700,32.244629,-104.214737,32.244903,-104.214624,BLACK RIVER SWD 001,EDDY,CONOCOPHILLIPS,2181,12256,10075,,1982-12-23,1982-01-20,,12500,DELAWARE VERTICAL,,,,24S,27E,P & A
30-015-42949,300154294900,32.215597,-104.169414,32.2163,-104.153364,MACANUDO BTE STATE COM 003C,EDDY,EOG,,,,,,,,7720,2ND BONE SPRING,,,,24S,27E,Permit Cancelled
30-015-44165,300154416500,32.239989,-104.160431,32.252985,-104.159952,EL PRESIDENTE STATE X 004H,EDDY,MARATHON,9286,13940,4654,4654,2017-09-14,2017-06-06,2017-09-01,9216,WOLFCAMP XY,,10188993,4996850,24S,27E,Producing
30-015-44967,300154496700,32.253092,-104.165364,32.233125,-104.162914,SOUTH LOVING 2 11 W0CF STATE COM 001H,EDDY,MEWBOURNE OIL,9348,16565,7217,7217,2018-10-23,2018-08-04,2018-10-01,9182,WOLFCAMP XY,47.8,17831058,17342648,24S,27E,Producing
30-015-23898,300152389800,32.236759,-104.163536,32.23658,-104.163116,SMITH 11 COM 001,EDDY,MEWBOURNE OIL,,,,,1982-02-01,1981-08-27,1982-02-01,12697,DELAWARE VERTICAL,32,,,24S,27E,P & A
30-015-23898,300152389800,32.236759,-104.163536,32.23658,-104.163116,SMITH 11 COM 001,EDDY,MEWBOURNE OIL,3170,3185,15,,2003-02-20,1981-08-27,1982-02-01,12697,DELAWARE VERTICAL,,,30000,24S,27E,P & A
30-015-01168,300150116800,32.17284,-104.170837,32.17284,-104.170837,WILDCAT 001,EDDY,PRE-ONGARD WELL OPERATOR,,,,,,,,,DELAWARE VERTICAL,,,,24S,27E,P & A
30-015-41775,300154177500,32.226124,-104.136597,32.226011,-104.151827,RUSTLER BREAKS 12 24 27 001H,EDDY,MATADOR RESOURCES,10022,14511,4489,4489,2014-02-22,2013-12-07,2014-02-01,9953,WOLFCAMP B LOWER,51,,8559640,24S,27E,Producing
30-015-23364,300152336400,32.252171,-104.201721,32.252171,-104.201721,COLLINS STATE 001,EDDY,PRE-ONGARD WELL OPERATOR,,,,,,,,2225,DELAWARE VERTICAL,,,,24S,27E,P & A
30-015-32446,300153244600,32.248772,-104.150497,32.249005,-104.150122,LOVING 1 STATE 003,EDDY,CONOCOPHILLIPS,12236,12664,428,,2003-01-07,2002-10-16,2003-02-01,7582,DELAWARE VERTICAL,,,,24S,27E,P & A
30-015-32446,300153244600,32.248772,-104.150497,32.249005,-104.150122,LOVING 1 STATE 003,EDDY,CONOCOPHILLIPS,12236,12664,428,,2004-09-16,2002-10-16,2003-02-01,7582,DELAWARE VERTICAL,,,171700,24S,27E,P & A
30-015-32650,300153265000,32.244926,-104.163391,32.244744,-104.163101,WEST LOVING 2 STATE 001,EDDY,MEWBOURNE OIL,12472,12486,14,,2003-05-05,2003-03-14,2003-05-01,12775,DELAWARE VERTICAL,,,,24S,27E,Producing
30-015-01132,300150113200,32.182659,-104.180557,32.182659,-104.180557,R.S. STATE 001,EDDY,PRE-ONGARD WELL OPERATOR,,,,,,,,,DELAWARE VERTICAL,,,,24S,27E,P & A
30-015-01119,300150111900,32.248741,-104.154762,32.248741,-104.154762,STATE 2 001,EDDY,PRE-ONGARD WELL OPERATOR,,,,,,,,2550,DELAWARE VERTICAL,,,,24S,27E,P & A
30-015-34231,300153423100,32.24868,-104.163322,32.248834,-104.163055,SOUTH LOVING 2 STATE 001,EDDY,MEWBOURNE OIL,11993,12350,357,,2006-02-11,2005-12-17,2006-02-01,12770,DELAWARE VERTICAL,,,70000,24S,27E,Producing
30-015-49702,300154970200,32.235422,-104.23696,32.239386,-104.204023,ATREIDES 8 WXY FEDERAL COM 004H,EDDY,MARATHON,,,,10016,,,,9020,WOLFCAMP B UPPER,,,,24S,27E,Permitted
30-015-49702,300154970201,32.235422,-104.23696,32.233749,-104.204485,ATREIDES 8 WXY FEDERAL COM 004H,EDDY,MARATHON,,,9799,9799,,,,9020,WOLFCAMP B UPPER,,,,24S,27E,Permitted
30-015-42738,300154273800,32.23994,-104.168826,32.253377,-104.168384,WEST LOVING 2 W2MD STATE 001H,EDDY,MEWBOURNE OIL,,,,4654,,,,9396,WOLFCAMP B UPPER,,,,24S,27E,Permit Cancelled
30-015-44504,300154450400,32.210732,-104.18136,32.223722,-104.18294,BLACK RIVER 374 STATE 24 27 15 WXY 003H,EDDY,MARATHON,9546,13710,4164,4164,2018-07-07,2018-02-19,2018-07-01,9143,WOLFCAMP XY,,6434408,,24S,27E,Producing
30-015-23048,300152304800,32.204559,-104.188225,32.204559,-104.188225,EL PASO STATE 001,EDDY,PRE-ONGARD WELL OPERATOR,,,,,,,,2328,DELAWARE VERTICAL,,,,24S,27E,P & A
30-015-44506,300154450600,32.210731,-104.181199,32.223682,-104.179706,BLACK RIVER 374 STATE 24 27 15 TB 010H,EDDY,MARATHON,9018,13501,4483,4483,2018-07-07,2018-02-22,2018-07-01,9027,3RD BONE SPRING SAND,,5985680,,24S,27E,Producing
30-015-23526,300152352600,32.186268,-104.210487,32.186268,-104.210487,LA VERNA FED 001,EDDY,PRE-ONGARD WELL OPERATOR,,,,,,,,,DELAWARE VERTICAL,,,,24S,27E,P & A
30-015-44189,300154418900,32.253433,-104.187672,32.225144,-104.188006,ROADSTER STATE COM 001H,EDDY,CONOCOPHILLIPS,9418,19085,9667,9667,2018-03-13,2017-12-23,2018-03-01,9231,WOLFCAMP A UPPER,,17151918,19388036,24S,27E,Producing
30-015-45319,300154531900,32.25335,-104.202788,32.225041,-104.202968,ROADSTER STATE COM 808H,EDDY,CONOCOPHILLIPS,9838,19490,9652,9652,2019-06-08,2019-02-22,2019-06-01,9703,WOLFCAMP B LOWER,,18315394,19530974,24S,27E,Producing
30-015-36749,300153674900,32.169076,-104.218071,32.169342,-104.217894,WOLF CREEK 32 STATE COM 001E,EDDY,COTERRA ENERGY,,,,,,,,12850,DELAWARE VERTICAL,,,,24S,27E,Permit Cancelled
30-015-44505,300154450500,32.210731,-104.181037,32.223684,-104.179717,BLACK RIVER 374 STATE 24 27 15 WA 008H,EDDY,MARATHON,9686,13798,4112,4112,2018-07-07,2018-02-20,2018-07-01,9270,WOLFCAMP A UPPER,,,8952136,24S,27E,Producing
30-015-41651,300154165100,32.217216,-104.195679,32.217216,-104.195679,BLACK RIVER 16 SWD 001,EDDY,DEVON,,,,,,,,15500,DELAWARE VERTICAL,,,,24S,27E,Permit Cancelled
30-015-44562,300154456200,32.201891,-104.153386,32.20259,-104.135846,DR K 24 23S 27E RB 223H,EDDY,MATADOR RESOURCES,,,,5170,,,,9880,WOLFCAMP B LOWER,,,,24S,27E,Permit Cancelled
30-015-49703,300154970300,32.235974,-104.236957,32.236205,-104.236864,ATREIDES 8 WXY FEDERAL COM 005H,EDDY,MARATHON,,,,,,,,18955,WOLFCAMP B UPPER,,,,24S,27E,Permitted
30-015-49703,300154970301,32.235974,-104.236957,32.237848,-104.204427,ATREIDES 8 WXY FEDERAL COM 005H,EDDY,MARATHON,,,9803,9803,,,,9021,WOLFCAMP B UPPER,,,,24S,27E,Permitted
30-015-49520,300154952000,32.253366,-104.182757,32.253724,-104.182558,TONY LA RUSSA 0310 STATE COM 225H,EDDY,MATADOR RESOURCES,,,10032,10032,2022-11-02,2022-07-15,2022-11-01,9708,WOLFCAMP B LOWER,,23041858,24781976,24S,27E,Producing
30-015-32038,300153203800,32.248875,-104.155083,32.249149,-104.154715,EL PRESIDENTE STATE 001,EDDY,MARATHON,12506,12520,14,,2002-05-16,2002-01-05,2002-05-01,12800,DELAWARE VERTICAL,,,,24S,27E,P & A
30-015-36130,300153613000,32.174994,-104.170638,32.180334,-104.170849,MUNNYNTHABANK STATE 001H,EDDY,EOG,8464,9975,1511,1511,2009-01-29,2008-12-09,2009-01-01,8221,3RD BONE SPRING,,203635,297598,24S,27E,Producing
30-015-36130,300153613000,32.174994,-104.170638,32.180334,-104.170849,MUNNYNTHABANK STATE 001H,EDDY,EOG,6102,8716,2614,2614,2010-06-10,2008-12-09,2009-01-01,8221,3RD BONE SPRING,,,,24S,27E,Producing
30-015-01129,300150112900,32.197151,-104.219116,32.197151,-104.219116,MOCK 002,EDDY,PRE-ONGARD WELL OPERATOR,,,,,,,,,DELAWARE VERTICAL,,,,24S,27E,P & A
30-015-34602,300153460200,32.169121,-104.200905,32.169445,-104.200733,BROCATUS BRX FEDERAL COM 001,EDDY,EOG,,,,,,,,12500,DELAWARE VERTICAL,,,,24S,27E,Permit Expired
30-015-23972,300152397200,32.179287,-104.15477,32.179287,-104.15477,PUBCO STATE 001,EDDY,PRE-ONGARD WELL OPERATOR,,,,,,,,6700,DELAWARE VERTICAL,,,,24S,27E,P & A
30-015-49180,300154918000,32.182439,-104.151007,32.210213,-104.145228,PERDOMO 25 STATE COM 704H,EDDY,EOG,,,9758,9758,2023-04-06,2022-01-04,2023-06-01,9210,WOLFCAMP XY,,16214730,25398757,24S,27E,Producing
30-015-23599,300152359900,32.219368,-104.166977,32.219368,-104.166977,HUMIDOR BMO STATE COM 003,EDDY,EOG,11220,12578,1358,,2006-09-10,2005-11-07,2006-10-01,12875,DELAWARE VERTICAL,,,40000,24S,27E,Producing
30-015-42852,300154285200,32.233192,-104.152129,32.233311,-104.136255,WEST LOVING 12 W2EH STATE COM 001H,EDDY,MEWBOURNE OIL,10119,14350,4231,4231,2017-05-18,2016-11-07,2017-05-01,9883,WOLFCAMP B LOWER,,10917130,10285870,24S,27E,Producing
30-015-46125,300154612500,32.208328,-104.142835,32.181674,-104.136524,QUIEN SABE FEDERAL COM 801H,EDDY,CONOCOPHILLIPS,9551,19090,9539,9539,2020-02-01,2019-08-18,2020-02-01,9315,WOLFCAMP XY,,16345602,24133708,24S,27E,Producing
30-015-32570,300153257000,32.244999,-104.154839,32.245195,-104.15452,EL PRESIDENTE STATE 002,EDDY,MARATHON,12503,12513,10,,2003-06-13,2003-03-22,2003-06-01,12825,DELAWARE VERTICAL,,,22000,24S,27E,P & A
30-015-44682,300154468200,32.230785,-104.136572,32.230947,-104.169244,DAVID EDELSTEIN STATE COM 203H,EDDY,MATADOR RESOURCES,9653,19171,9518,9518,2018-07-07,2018-03-11,2018-08-01,9292,WOLFCAMP A UPPER,45.3,15080808,27293371,24S,27E,Producing
30-015-44814,300154481400,32.21088,-104.184783,32.223982,-104.185748,BLACK RIVER 374 STATE 24 27 15 WA 005H,EDDY,MARATHON,,,4347,4347,,,,8970,WOLFCAMP XY,,,,24S,27E,Permit Cancelled
30-015-44070,300154407000,32.210638,-104.173203,32.238414,-104.185649,BLACK RIVER 15 10 STATE COM X 005H,EDDY,MARATHON,,,,10587,,2017-10-04,2018-02-01,7622,2ND BONE SPRING SAND,,,,24S,27E,Drilled
30-015-44070,300154407001,32.210638,-104.173203,32.238049,-104.172118,BLACK RIVER 15 10 STATE COM X 005H,EDDY,MARATHON,7579,15943,8364,8364,2018-02-28,2017-10-04,2018-02-01,7622,2ND BONE SPRING SAND,,12990164,21491036,24S,27E,Producing
30-015-42458,300154245801,32.24094,-104.220345,32.24094,-104.220345,BLACK RIVER STATE 004H,EDDY,CONOCOPHILLIPS,,,,,,2014-08-31,2014-12-01,9659,WOLFCAMP C,,,,24S,27E,Drilled
30-015-42458,300154245800,32.24094,-104.220345,32.241109,-104.206218,BLACK RIVER STATE 004H,EDDY,CONOCOPHILLIPS,9823,13600,3777,3777,2014-12-11,2014-08-31,2014-12-01,9659,WOLFCAMP C,,7661010,7820415,24S,27E,Producing
30-015-43672,300154367200,32.202314,-104.168639,32.182152,-104.167515,HUMIDOR BML STATE COM 001H,EDDY,EOG,,,,7114,,,,8965,3RD BONE SPRING SAND,,,,24S,27E,Permit Cancelled
30-015-45965,300154596500,32.253368,-104.182562,32.24015,-104.179605,TONY LA RUSSA STATE COM 202H,EDDY,MATADOR RESOURCES,9400,13747,4347,4347,2019-08-29,2019-06-07,2019-08-01,9172,WOLFCAMP A UPPER,47.6,10555557,10973546,24S,27E,Producing
30-015-44973,300154497300,32.219298,-104.135768,32.220732,-104.151301,BRANTLEY STATE COM 13 24 27 RB 222H,EDDY,MATADOR RESOURCES,,,,4573,,,,10347,WOLFCAMP D,,,,24S,27E,Permit Cancelled
30-015-49643,300154964300,32.212023,-104.136261,32.213603,-104.151299,MAD RIVER 13 STATE COM 010H,EDDY,CAZA PETROLEUM,,,4444,4444,2022-10-03,2022-07-18,,10309,WOLFCAMP D,,9620394,2668013,24S,27E,Completed
30-015-46127,300154612700,32.20833,-104.142738,32.181629,-104.139816,QUIEN SABE FEDERAL COM 602H,EDDY,CONOCOPHILLIPS,9497,18825,9328,9328,2020-01-20,2019-08-16,2020-02-01,9350,WOLFCAMP A UPPER,,16574402,24136165,24S,27E,Producing
30-015-01140,300150114000,32.168434,-104.137589,32.168434,-104.137589,KELLY ST 001,EDDY,PRE-ONGARD WELL OPERATOR,,,,,,,,2600,DELAWARE VERTICAL,,,,24S,27E,P & A
30-015-26812,300152681200,32.182011,-104.154594,32.182011,-104.154594,RJR STATE 1,EDDY,PRE-ONGARD WELL OPERATOR,,,,,,1991-08-24,,6000,DELAWARE VERTICAL,,,,24S,27E,P & A
30-015-40742,300154074200,32.17187,-104.188019,32.171822,-104.203044,BOLIVAR BRD FEDERAL COM 001H,EDDY,EOG,7972,12004,4032,4032,2013-06-12,2013-03-08,2013-06-01,7638,2ND BONE SPRING SAND,,,,24S,27E,Producing
30-015-48711,300154871100,32.226896,-104.237036,32.225518,-104.204631,FREMEN 7 WXY FEDERAL COM 005H,EDDY,MARATHON,,,9814,9814,,,,9016,WOLFCAMP A LOWER,,,,24S,27E,Permit Expired
30-015-32499,300153249900,32.237743,-104.154984,32.237938,-104.154534,WEST LOVING 11 FEDERAL COM 001,EDDY,MEWBOURNE OIL,12204,12372,168,,2003-01-08,2002-11-05,2003-01-01,12815,DELAWARE VERTICAL,,,,24S,27E,Producing
30-015-49181,300154918100,32.182398,-104.151007,32.210216,-104.147232,PERDOMO 25 STATE COM 703H,EDDY,EOG,,,9854,9854,2023-04-06,2022-01-04,2023-06-01,9207,WOLFCAMP XY,,15746892,24714531,24S,27E,Producing
30-015-37763,300153776300,32.189958,-104.206201,32.190153,-104.219203,SERRANO 29 FEDERAL 001H,EDDY,EOG,10712,14417,3705,3705,2011-02-01,2010-09-13,2011-08-01,10810,LOWER PENNSYLVANIAN AND MISSISSIPPIAN,,,,24S,27E,Producing
30-015-49642,300154964200,32.212105,-104.136262,32.217122,-104.151292,MAD RIVER 13 STATE COM 011H,EDDY,CAZA PETROLEUM,,,4550,4550,2022-10-03,2022-07-17,,9996,WOLFCAMP C,,9958356,2720750,24S,27E,Completed
30-015-01118,300150111800,32.245033,-104.150566,32.245033,-104.150566,ST 001,EDDY,PRE-ONGARD WELL OPERATOR,,,,,,,,,DELAWARE VERTICAL,,,,24S,27E,P & A
30-015-01137,300150113700,32.175381,-104.227676,32.175381,-104.227676,FED-WIGGS 001,EDDY,PRE-ONGARD WELL OPERATOR,,,,,,,,14865,DELAWARE VERTICAL,,,,24S,27E,P & A
30-015-42662,300154266200,32.195281,-104.140841,32.183468,-104.141506,QUIEN SABE 25 FEDERAL 002H,EDDY,CONOCOPHILLIPS,,,4056,4056,,,,8980,3RD BONE SPRING SAND,,,,24S,27E,Permit Expired
30-015-35344,300153534400,32.226395,-104.19989,32.226783,-104.200069,LONG NOSE COM 001,EDDY,CONOCOPHILLIPS,11169,11184,15,,2007-04-20,2007-02-26,2007-04-01,11250,DELAWARE VERTICAL,,,,24S,27E,Producing
30-015-35344,300153534400,32.226395,-104.19989,32.226783,-104.200069,LONG NOSE COM 001,EDDY,CONOCOPHILLIPS,11654,12050,396,,2007-11-11,2007-02-26,2007-04-01,11250,DELAWARE VERTICAL,,,50000,24S,27E,Producing
30-015-45225,300154522500,32.23062,-104.136572,32.230509,-104.16896,DAVID EDELSTEIN STATE COM 123C,EDDY,MATADOR RESOURCES,,,,9745,,,,8005,3RD BONE SPRING,,,,24S,27E,Permit Cancelled
30-015-46022,300154602200,32.212022,-104.136068,32.212478,-104.152175,MAD RIVER 13 STATE COM 009H,EDDY,CAZA PETROLEUM,,,4879,4879,,,,8335,3RD BONE SPRING,,,,24S,27E,Permit Expired
30-015-43164,300154316400,32.203275,-104.162723,32.182146,-104.163249,HUMIDOR BML STATE COM 003H,EDDY,EOG,,,,7460,,,,8053,3RD BONE SPRING,,,,24S,27E,Permit Cancelled
30-015-43175,300154317500,32.203269,-104.159241,32.22437,-104.158473,MACANUDO BTE STATE COM 002H,EDDY,EOG,,,,7452,,,,7966,3RD BONE SPRING,,,,24S,27E,Permit Cancelled
30-015-45786,300154578600,32.253349,-104.185702,32.239623,-104.185647,EIGHTY SIX SOX STATE 801H,EDDY,CONOCOPHILLIPS,,,4767,4767,,,,9722,WOLFCAMP B LOWER,,,,24S,27E,Permit Expired
30-015-01125,300150112500,32.216438,-104.177536,32.216438,-104.177536,SO PET EXPL C 001,EDDY,PRE-ONGARD WELL OPERATOR,,,,,,,,,DELAWARE VERTICAL,,,,24S,27E,P & A
30-015-41145,300154114590,32.181066,-104.219965,32.180914,-104.219817,DOC HOLLIDAY 32 STATE COM 001,EDDY,EOG,,,,,,2014-02-07,2014-04-01,9103,,,,,24S,27E,Drilled
30-015-41145,300154114500,32.181066,-104.219965,32.167826,-104.219048,DOC HOLLIDAY 32 STATE COM 001,EDDY,EOG,7648,12101,4453,4453,2014-04-13,2014-02-07,2014-04-01,7620,2ND BONE SPRING SAND,,3000564,2625398,24S,27E,Producing
30-015-39377,300153937700,32.214077,-104.205276,32.214763,-104.218652,HABANERO 17 FEDERAL 002H,EDDY,DEVON,,,,,,,,10550,DELAWARE VERTICAL,,,,24S,27E,Permit Cancelled
30-015-46123,300154612300,32.209054,-104.138775,32.182198,-104.136175,QUIEN SABE FEDERAL COM 601H,EDDY,CONOCOPHILLIPS,,,9812,9812,,,,9267,WOLFCAMP A UPPER,,,,24S,27E,Permit Expired
30-015-26456,300152645600,32.252338,-104.158966,32.252338,-104.158966,P E O C 2 STATE 1,EDDY,PRE-ONGARD WELL OPERATOR,,,,,,1990-09-13,,10500,DELAWARE VERTICAL,,,,24S,27E,P & A
30-015-25812,300152581200,32.172535,-104.158989,32.172978,-104.15844,HARKEY 35 STATE 001,EDDY,EOG,12648,12652,4,,1988-02-24,1987-10-17,1989-01-01,12920,DELAWARE VERTICAL,,,,24S,27E,Producing
30-015-25812,300152581200,32.172535,-104.158989,32.172978,-104.15844,HARKEY 35 STATE 001,EDDY,EOG,8210,8284,74,,1995-01-13,1987-10-17,1989-01-01,12920,DELAWARE VERTICAL,,,,24S,27E,Producing
30-015-25812,300152581200,32.172535,-104.158989,32.172978,-104.15844,HARKEY 35 STATE 001,EDDY,EOG,,,,,1995-03-07,1987-10-17,1989-01-01,12920,DELAWARE VERTICAL,,,,24S,27E,Producing
30-015-41172,300154117200,32.210411,-104.190476,32.223987,-104.190017,JOSEY WALES 16 STATE COM 004H,EDDY,DEVON,,,4349,4349,,,,8966,WOLFCAMP XY,,,,24S,27E,Permit Cancelled
30-015-47596,300154759600,32.196456,-104.220321,32.224789,-104.216596,WYATT EARP 20 17 FEDERAL COM 621H,EDDY,DEVON,,,9901,9901,,,,8960,WOLFCAMP XY,,,,24S,27E,Permitted
30-015-01122,300150112200,32.237541,-104.191444,32.237541,-104.191444,CRAWFORD 001,EDDY,PRE-ONGARD WELL OPERATOR,,,,,,,,,DELAWARE VERTICAL,,,,24S,27E,P & A
30-015-46128,300154612800,32.208326,-104.142932,32.181562,-104.142915,QUIEN SABE FEDERAL COM 603H,EDDY,CONOCOPHILLIPS,9499,19035,9536,9536,2020-02-01,2019-08-19,2020-02-01,9306,WOLFCAMP A UPPER,,16829106,24132344,24S,27E,Producing
30-015-48712,300154871200,32.226814,-104.237037,32.226788,-104.204629,FREMEN 7 WXY FEDERAL COM 003H,EDDY,MARATHON,,,9838,9838,,,,,,,,,24S,27E,Permit Expired
30-015-22352,300152235200,32.175716,-104.14621,32.176052,-104.145884,RED BLUFF STATE 001,EDDY,PURVIS OPERATING,,,,,1992-06-01,1985-10-10,1992-06-01,5950,DELAWARE VERTICAL,,,,24S,27E,P & A
30-015-36101,300153610100,32.240898,-104.23152,32.241102,-104.231426,ALMOSTGON STATE 002N,EDDY,CONOCOPHILLIPS,,,,,,,,12500,DELAWARE VERTICAL,,,,24S,27E,Permit Cancelled
30-015-27100,300152710000,32.214562,-104.185127,32.214562,-104.185127,BR 15 STATE 001,EDDY,MARATHON,2290,2302,12,,1992-10-09,1992-09-21,1995-01-01,5975,DELAWARE VERTICAL,,,,24S,27E,P & A
30-015-27100,300152710001,32.214562,-104.185127,32.214562,-104.185127,BR 15 STATE 001,EDDY,MARATHON,2290,2302,12,,1996-06-27,1992-09-21,1995-01-01,5975,DELAWARE VERTICAL,,,,24S,27E,P & A
30-015-45143,300154514301,32.230702,-104.136572,32.229924,-104.159921,DAVID EDELSTEIN STATE COM 223H,EDDY,MATADOR RESOURCES,,,,,,2018-10-16,2019-03-01,10288,,,,,24S,27E,Drilled
30-015-45143,300154514300,32.230702,-104.136572,32.229656,-104.169232,DAVID EDELSTEIN STATE COM 223H,EDDY,MATADOR RESOURCES,10268,20270,10002,10002,2019-01-10,2018-10-16,2019-03-01,10288,WOLFCAMP C,56,25877082,24233602,24S,27E,Producing
30-015-43967,300154396700,32.225421,-104.17099,32.225944,-104.153041,SWITCHBACK STATE 021H,EDDY,CONOCOPHILLIPS,9667,14180,4513,4513,2017-03-27,2016-12-28,2017-03-01,9346,WOLFCAMP A UPPER,,9009966,9033907,24S,27E,Producing
30-015-23022,300152302200,32.212208,-104.145439,32.212208,-104.145439,BRANTLEY 13 STATE COM 001,EDDY,PRE-ONGARD WELL OPERATOR,,,,,,,,12900,DELAWARE VERTICAL,,,,24S,27E,P & A
30-015-41469,300154146900,32.209367,-104.188124,32.195806,-104.188042,BUZZ 21 STATE 701H,EDDY,EOG,9348,13834,4486,4486,2017-03-20,2016-12-18,2017-03-01,9140,WOLFCAMP A UPPER,48,9401011,11605587,24S,27E,Producing
30-015-45964,300154596400,32.253367,-104.18266,32.240145,-104.183815,TONY LA RUSSA STATE COM 201H,EDDY,MATADOR RESOURCES,9400,13718,4318,4318,2019-08-29,2019-06-06,2019-08-01,9133,WOLFCAMP A UPPER,46,9004674,11025526,24S,27E,Producing
30-015-23411,300152341100,32.190285,-104.150574,32.190285,-104.150574,STATE 1S 001,EDDY,PRE-ONGARD WELL OPERATOR,,,,,,,,5500,DELAWARE VERTICAL,,,,24S,27E,P & A
30-015-53829,300155382900,32.230482,-104.136475,32.231011,-104.136099,DAVID EDELSTEIN STATE COM 113H,EDDY,MATADOR RESOURCES,,,9939,9939,,,,7000,1ST BONE SPRING,,,,24S,27E,Permitted
30-015-42950,300154295000,32.211062,-104.169395,32.212672,-104.153371,MACANUDO BTE STATE COM 004C,EDDY,EOG,,,,,,,,7750,3RD BONE SPRING,,,,24S,27E,Permit Cancelled
30-015-21033,300152103300,32.229942,-104.23159,32.229942,-104.23159,HERREN FEDERAL GAS COM 000001,EDDY,PRE-ONGARD WELL OPERATOR,,,,,,,,10916,DELAWARE VERTICAL,,,,24S,27E,P & A
30-015-47540,300154754000,32.1964,-104.205799,32.22492,-104.205731,WYATT EARP 20 17 FEDERAL COM 623H,EDDY,DEVON,,,9940,9940,,,,9030,WOLFCAMP XY,,,,24S,27E,Permitted
30-015-24097,300152409700,32.233036,-104.176392,32.232968,-104.17593,SMITH 10 COM 001,EDDY,MARATHON,10680,10840,160,,1982-05-21,1982-02-22,1982-05-01,12550,DELAWARE VERTICAL,,,,24S,27E,P & A
30-015-40162,300154016201,32.209092,-104.183988,32.196151,-104.185719,BULLSEYE 22 STATE COM 001H,EDDY,EOG,,,,4292,,2012-07-16,2012-09-01,7612,,,,,24S,27E,Drilled
30-015-40162,300154016200,32.209092,-104.183988,32.209042,-104.184106,BULLSEYE 22 STATE COM 001H,EDDY,EOG,7722,12014,4292,,2012-09-14,2012-07-16,2012-09-01,9418,2ND BONE SPRING SAND,,3110651,3302300,24S,27E,Producing
30-015-01135,300150113500,32.182636,-104.206222,32.182636,-104.206222,KATIE MOCK 001,EDDY,PRE-ONGARD WELL OPERATOR,,,,,1963-11-01,,1963-11-01,,DELAWARE VERTICAL,,,,24S,27E,P & A
30-015-21026,300152102600,32.178463,-104.23159,32.178463,-104.23159,COLES 31 FEDERAL 001,EDDY,PRE-ONGARD WELL OPERATOR,,,,,,,,,DELAWARE VERTICAL,,,,24S,27E,P & A
30-015-43674,300154367400,32.211099,-104.145381,32.224352,-104.145667,MAD RIVER 13 STATE COM 001H,EDDY,CAZA PETROLEUM,,,,4586,,,,8994,3RD BONE SPRING SAND,,,,24S,27E,Permit Cancelled
30-015-01124,300150112400,32.219559,-104.146668,32.219559,-104.146668,BEEMAN 001,EDDY,PRE-ONGARD WELL OPERATOR,,,,,,,,,DELAWARE VERTICAL,,,,24S,27E,P & A
30-015-43898,300154389800,32.211285,-104.135825,32.211158,-104.151269,MAD RIVER 13 STATE COM 003H,EDDY,CAZA PETROLEUM,8971,13887,4916,4916,2017-01-02,2016-10-28,2017-01-01,9333,WOLFCAMP A UPPER,,4724118,9060870,24S,27E,Producing
30-015-54114,300155411400,32.181438,-104.233794,32.209216,-104.236758,ARCHDUKE 30 19 W0MD FEDERAL COM 001H,EDDY,MEWBOURNE OIL,,,9702,9702,,,,8958,WOLFCAMP A UPPER,,,,24S,27E,Permitted
30-015-42603,300154260300,32.238796,-104.136154,32.238841,-104.15133,WEST LOVING 12 W2AD STATE COM 001H,EDDY,MEWBOURNE OIL,,,,4433,,,,9817,WOLFCAMP B LOWER,,,,24S,27E,Permit Cancelled
30-015-43796,300154379600,32.18038,-104.236783,32.194816,-104.236676,COMMODORE 30 W2MD FEDERAL 001H,EDDY,MEWBOURNE OIL,,,4667,4667,,,,7391,2ND BONE SPRING,,,,24S,27E,Unreported
30-015-41720,300154172000,32.166965,-104.236237,32.179764,-104.23634,TAOS FEDERAL 005H,EDDY,COTERRA ENERGY,7205,11800,4595,4595,2015-01-16,2014-11-19,2015-01-01,7372,2ND BONE SPRING SAND,43.6,3427492,5041148,24S,27E,Producing
30-015-34960,300153496000,32.168251,-104.184807,32.168214,-104.184751,SWISHER BJE STATE 001,EDDY,EOG,,,,,2008-05-01,2006-06-30,2008-05-01,2296,DELAWARE VERTICAL,,,,24S,27E,Producing
30-015-45047,300154504700,32.24571,-104.20343,32.245895,-104.203478,FOUNDATION MINERALS FEE SWD 001,EDDY,"DKL FIELD SERVICES, LLC",,,,,,,,14095,DELAWARE VERTICAL,,,,24S,27E,Permit Cancelled
30-015-32889,300153288900,32.207581,-104.156052,32.207581,-104.156052,HUMIDOR BMJ STATE COM 001,EDDY,EOG,12366,12860,494,,2004-01-28,2003-08-26,2004-03-01,12940,DELAWARE VERTICAL,,,100000,24S,27E,Producing
30-015-44462,300154446200,32.20984,-104.222185,32.196449,-104.222432,ARCHDUKE 19 W2AP FEDERAL COM 001H,EDDY,MEWBOURNE OIL,10095,14555,4460,4460,2018-03-20,2017-11-20,2018-03-01,9990,WOLFCAMP D,,11018700,9288022,24S,27E,Producing
30-015-44483,300154448300,32.240218,-104.155729,32.253332,-104.156861,EL PRESIDENTE STATE 24 27 2 WA 005H,EDDY,MARATHON,9683,14014,4331,4331,2018-07-01,2018-01-11,2018-08-01,9316,WOLFCAMP A UPPER,,6960749,,24S,27E,Producing
30-015-43125,300154312500,32.238599,-104.153909,32.238401,-104.168449,WEST LOVING 11 W2AD FEDERAL COM 001H,EDDY,MEWBOURNE OIL,,,4080,4080,,,,9811,WOLFCAMP B LOWER,,,,24S,27E,Permit Cancelled
30-015-35536,300153553600,32.241367,-104.176239,32.241297,-104.175883,SPANISH CEDAR STATE 001,EDDY,CONOCOPHILLIPS,12036,12452,416,,2007-10-10,2007-08-19,2007-12-01,12640,DELAWARE VERTICAL,,,,24S,27E,Producing
30-015-35536,300153553600,32.241367,-104.176239,32.241297,-104.175883,SPANISH CEDAR STATE 001,EDDY,CONOCOPHILLIPS,11004,12135,1131,,2008-04-15,2007-08-19,2007-12-01,12640,DELAWARE VERTICAL,,,,24S,27E,Producing
30-015-35536,300153553600,32.241367,-104.176239,32.241297,-104.175883,SPANISH CEDAR STATE 001,EDDY,CONOCOPHILLIPS,5556,5598,42,,2008-07-02,2007-08-19,2007-12-01,12640,DELAWARE VERTICAL,,,57100,24S,27E,Producing
30-015-35536,300153553600,32.241367,-104.176239,32.241297,-104.175883,SPANISH CEDAR STATE 001,EDDY,CONOCOPHILLIPS,5909,6885,976,,2010-09-10,2007-08-19,2007-12-01,12640,DELAWARE VERTICAL,,350157,401560,24S,27E,Producing
30-015-24429,300152442900,32.242348,-104.145927,32.242461,-104.145566,LOVING 1 STATE 002,EDDY,CONOCOPHILLIPS,,,,,1983-09-01,1983-03-17,1983-09-01,12840,DELAWARE VERTICAL,,,,24S,27E,P & A
30-015-24429,300152442900,32.242348,-104.145927,32.242461,-104.145566,LOVING 1 STATE 002,EDDY,CONOCOPHILLIPS,10310,10394,84,,2007-08-09,1983-03-17,1983-09-01,12840,DELAWARE VERTICAL,,,,24S,27E,P & A
30-015-24429,300152442900,32.242348,-104.145927,32.242461,-104.145566,LOVING 1 STATE 002,EDDY,CONOCOPHILLIPS,6022,9146,3124,,2012-01-05,1983-03-17,1983-09-01,12840,DELAWARE VERTICAL,,739956,878483,24S,27E,P & A
30-015-22084,300152208400,32.188572,-104.218178,32.188572,-104.218178,EL PASO FEDERAL 29 SWD 001,EDDY,DEVON,,,,,,,,12400,DELAWARE VERTICAL,,,,24S,27E,P & A
30-015-48647,300154864700,32.182363,-104.151014,32.21022,-104.149748,PERDOMO 25 STATE COM 702H,EDDY,EOG,,,,,2023-04-14,2021-12-20,2023-06-01,9193,DELAWARE VERTICAL,,15550080,24716871,24S,27E,Producing
30-015-24227,300152422700,32.244564,-104.227455,32.244564,-104.227455,AMOCO MU STATE 001,EDDY,PRE-ONGARD WELL OPERATOR,,,,,,,,,DELAWARE VERTICAL,,,,24S,27E,P & A
30-015-41270,300154127000,32.16712,-104.223344,32.18014,-104.22314,TAOS FEDERAL 004H,EDDY,COTERRA ENERGY,7433,12115,4682,4682,2013-08-24,2013-06-15,2013-08-01,7549,2ND BONE SPRING SAND,,1661043,2717464,24S,27E,Producing
30-015-01167,300150116700,32.179321,-104.150505,32.179321,-104.150505,STATE 002,EDDY,PRE-ONGARD WELL OPERATOR,,,,,,,,,DELAWARE VERTICAL,,,,24S,27E,P & A
30-015-41748,300154174800,32.208027,-104.145386,32.208412,-104.162095,FONSECA BTD STATE COM 001H,EDDY,EOG,,,,,,,,7860,3RD BONE SPRING,,,,24S,27E,Permit Cancelled
30-015-44485,300154448500,32.240218,-104.155406,32.253348,-104.153502,EL PRESIDENTE STATE 24 27 2 WXY 010H,EDDY,MARATHON,9618,13904,4286,4286,2018-07-01,2018-01-10,2018-07-01,9264,WOLFCAMP XY,,6225016,,24S,27E,Producing
30-015-35705,300153570500,32.240955,-104.223312,32.241282,-104.223168,ALMOSTGON STATE 001,EDDY,CONOCOPHILLIPS,11737,12146,409,,2007-12-03,2007-09-29,2008-01-01,12350,DELAWARE VERTICAL,,,14900,24S,27E,Producing
30-015-41152,300154115200,32.180408,-104.205383,32.167636,-104.206068,DOC HOLLIDAY 32 STATE COM 004,EDDY,DEVON,,,,,,,,7590,DELAWARE VERTICAL,,,,24S,27E,Permit Cancelled
30-015-42754,300154275400,32.202941,-104.16869,32.202946,-104.168665,HUMIDOR BMO STATE COM 002,EDDY,EOG,,,,,,2014-10-28,,155,DELAWARE VERTICAL,,,,24S,27E,P & A
30-015-47643,300154764300,32.194495,-104.209203,32.166783,-104.205003,HUCKLEBERRY 29 32 STATE FEDERAL COM 734H,EDDY,EOG,,,9930,9930,,,,9750,WOLFCAMP B LOWER,,,,24S,27E,Permit Expired
30-015-41407,300154140700,32.2113,-104.145424,32.211756,-104.145904,MAD RIVER 13 STATE COM 001C,EDDY,CAZA PETROLEUM,,,4175,4175,,,,9121,3RD BONE SPRING SAND,,,,24S,27E,Permit Cancelled
30-015-42689,300154268900,32.224105,-104.171268,32.238652,-104.170681,BLACK RIVER 10 STATE COM 001H,EDDY,MARATHON,,,,5060,,,,8734,3RD BONE SPRING SAND,,,,24S,27E,Permit Cancelled
30-015-35495,300153549500,32.208637,-104.137642,32.208549,-104.137844,WOODY'S HOPE FEDERAL COM 001,EDDY,CONOCOPHILLIPS,12361,12548,187,,2008-01-29,2007-11-05,2008-02-01,13008,DELAWARE VERTICAL,,,35489,24S,27E,Producing
30-015-23946,300152394600,32.219315,-104.172211,32.219315,-104.172211,STATE 58 000001,EDDY,PRE-ONGARD WELL OPERATOR,,,,,,,,11995,DELAWARE VERTICAL,,,,24S,27E,P & A
30-015-46124,300154612400,32.209051,-104.138969,32.182205,-104.142576,QUIEN SABE FEDERAL COM 800H,EDDY,CONOCOPHILLIPS,,,9811,9811,,,,9260,WOLFCAMP B UPPER,,,,24S,27E,Permit Expired
30-015-35208,300153520800,32.182758,-104.171951,32.182755,-104.171901,BEHIKE BKE STATE COM 001,EDDY,EOG,12088,12574,486,,2008-09-16,2006-10-31,2008-09-01,12950,DELAWARE VERTICAL,,,74186,24S,27E,Producing